1 48211U 21031B   22092.10641895 -.00000063  00000-0 -20513-3 0  9997
2 48211  87.8980 235.1589 0002979  83.5943 276.5526 13.14500640 46355
1 48211U 21031B   22092.86759923 -.00000110  00000-0 -33176-3 0  9994
2 48211  87.8983 235.0074 0002970  82.8265 277.3203 13.14500555 46453
1 48211U 21031B   22093.47654249  .00000155  00000-0  38402-3 0  9991
2 48211  87.8984 234.8864 0002977  82.0696 278.0771 13.14500552 46539
1 48211U 21031B   22093.85713098  .00000243  00000-0  62051-3 0  9996
2 48211  87.8986 234.8109 0002949  81.6131 278.5333 13.14502144 46584
1 48211U 21031B   22094.46607387  .00000358  00000-0  93118-3 0  9992
2 48211  87.8986 234.6896 0002938  80.9503 279.1959 13.14502338 46663
1 48211U 21031B   22094.84666352  .00000339  00000-0  87924-3 0  9998
2 48211  87.8987 234.6141 0002911  79.9021 280.2437 13.14502295 46713
1 48211U 21031B   22095.45560574  .00000362  00000-0  94113-3 0  9999
2 48211  87.8988 234.4929 0002909  79.5148 280.6309 13.14503114 46790
1 48211U 21031B   22095.83619478  .00000181  00000-0  45477-3 0  9997
2 48211  87.8989 234.4170 0002872  79.7851 280.3602 13.14503650 46845
1 48211U 21031B   22095.91231261  .00000169  00000-0  42235-3 0  9991
2 48211  87.8989 234.4018 0002875  79.6616 280.4838 13.14503634 46852
1 48211U 21031B   22096.44513640  .00000295  00000-0  76245-3 0  9992
2 48211  87.8990 234.2959 0002879  78.8705 281.2749 13.14503863 46922
1 48211U 21031B   22096.90184329  .00000192  00000-0  48444-3 0  9997
2 48211  87.8990 234.2050 0002862  78.4479 281.6972 13.14503475 46987
1 48211U 21031B   22097.13019639  .00000212  00000-0  53744-3 0  9996
2 48211  87.8991 234.1596 0002855  78.2436 281.9014 13.14503421 47011
1 48211U 21031B   22097.43466644 -.00000400  00000-0 -11141-2 0  9996
2 48211  87.8990 234.0994 0002924  76.8593 283.2863 13.14506999 47050
1 48211U 21031B   22097.89137343  .00000090  00000-0  20764-3 0  9992
2 48211  87.8991 234.0082 0002856  77.3878 282.7571 13.14503302 47117
1 48211U 21031B   22098.42419718  .00000690  00000-0  18270-2 0  9995
2 48211  87.8993 233.9023 0003219  81.5977 278.5517 13.14500589 47187
1 48211U 21031B   22098.42419718  .00000690  00000-0  18270-2 0  9995
2 48211  87.8993 233.9023 0003219  81.5977 278.5517 13.14500589 47187
1 48211U 21031B   22098.88090266  .00000170  00000-0  42458-3 0  9997
2 48211  87.8993 233.8114 0002904  71.0283 289.1161 13.14503480 47244
1 48211U 21031B   22099.41372503 -.00000835  00000-0 -22879-2 0  9998
2 48211  87.8994 233.7054 0002898  75.3631 284.7820 13.14508376 47313
1 48211U 21031B   22099.79431367 -.00000062  00000-0 -20286-3 0  9996
2 48211  87.8995 233.6297 0002777  75.5864 284.5574 13.14504200 47369
1 48211U 21031B   22099.87043135 -.00000073  00000-0 -23181-3 0  9996
2 48211  87.8995 233.6146 0002777  75.5385 284.6053 13.14504153 47371
1 48211U 21031B   22100.40325467 -.00000103  00000-0 -31183-3 0  9994
2 48211  87.8995 233.5085 0002773  75.0874 285.0563 13.14504389 47446
1 48211U 21031B   22100.85996121 -.00000203  00000-0 -58235-3 0  9992
2 48211  87.8997 233.4177 0002751  74.5663 285.5770 13.14503858 47507
1 48211U 21031B   22101.08831420 -.00000238  00000-0 -67591-3 0  9991
2 48211  87.8997 233.3723 0002746  74.4180 285.7252 13.14504009 47539
1 48211U 21031B   22101.39278401 -.00000095  00000-0 -29178-3 0  9999
2 48211  87.8999 233.3118 0002739  74.1784 285.9648 13.14504675 47572
1 48211U 21031B   22101.84949097 -.00000178  00000-0 -51552-3 0  9998
2 48211  87.9001 233.2210 0002726  73.5340 286.6089 13.14503977 47634
1 48211U 21031B   22102.38231475 -.00000137  00000-0 -40390-3 0  9995
2 48211  87.9002 233.1152 0002701  72.8482 287.2943 13.14504198 47701
1 48211U 21031B   22102.61066855 -.00000233  00000-0 -66243-3 0  9991
2 48211  87.9003 233.0698 0002692  72.4905 287.6519 13.14503779 47731
1 48211U 21031B   22102.83902154 -.00000147  00000-0 -43076-3 0  9999
2 48211  87.9004 233.0244 0002685  72.2327 287.9096 13.14503993 47761
1 48211U 21031B   22103.37184524 -.00000021  00000-0 -92385-4 0  9991
2 48211  87.9003 232.9184 0002657  71.5071 288.6347 13.14504515 47834
1 48211U 21031B   22103.82855243 -.00000025  00000-0 -10304-3 0  9998
2 48211  87.9004 232.8275 0002642  70.9225 289.2191 13.14503911 47892
1 48211U 21031B   22104.58972972  .00000114  00000-0  27205-3 0  9996
2 48211  87.9005 232.6761 0002607  70.2808 289.8603 13.14504347 47991
1 48211U 21031B   22105.04643680  .00000056  00000-0  11547-3 0  9996
2 48211  87.9006 232.5853 0002585  70.0269 290.1139 13.14504274 48053
1 48211U 21031B   22105.57926079  .00000166  00000-0  41310-3 0  9993
2 48211  87.9006 232.4794 0002565  69.6151 290.5254 13.14504415 48125
1 48211U 21031B   22105.88373288  .00000141  00000-0  34500-3 0  9991
2 48211  87.9007 232.4189 0002540  69.0244 291.1157 13.14503232 48163
1 48211U 21031B   22106.11208686  .00000073  00000-0  16212-3 0  9991
2 48211  87.9007 232.3736 0002541  69.0894 291.0507 13.14502789 48199
1 48211U 21031B   22106.56879258  .00000157  00000-0  38884-3 0  9991
2 48211  87.9008 232.2829 0002529  68.3442 291.7957 13.14503856 48258
1 48211U 21031B   22106.87326472  .00000072  00000-0  16054-3 0  9991
2 48211  87.9008 232.2224 0002514  68.1889 291.9508 13.14502753 48297
1 48211U 21031B   22107.40608832  .00000085  00000-0  19445-3 0  9995
2 48211  87.9009 232.1166 0002503  67.8349 292.3046 13.14503644 48367
1 48211U 21031B   22107.40608832  .00000085  00000-0  19445-3 0  9995
2 48211  87.9009 232.1166 0002503  67.8349 292.3046 13.14503644 48367
1 48211U 21031B   22107.86279528  .00000152  00000-0  37666-3 0  9991
2 48211  87.9009 232.0258 0002486  67.6199 292.5194 13.14502644 48421
1 48211U 21031B   22108.39561872  .00000111  00000-0  26592-3 0  9997
2 48211  87.9009 231.9199 0002468  67.1919 292.9472 13.14503711 48494
1 48211U 21031B   22108.77620834  .00000211  00000-0  53573-3 0  9993
2 48211  87.9011 231.8442 0002586  71.7712 288.3699 13.14501877 48547
1 48211U 21031B   22108.85231590 -.00006655  00000-0 -17989-1 0  9998
2 48211  87.9011 231.8291 0002322  60.7449 299.3913 13.14535416 48550
1 48211U 21031B   22109.38514904  .00000117  00000-0  28108-3 0  9992
2 48211  87.9013 231.7234 0002412  66.8132 293.3251 13.14503140 48620
1 48211U 21031B   22110.07020925 -.00000095  00000-0 -29015-3 0  9990
2 48211  87.9014 231.5872 0002367  66.0088 294.1289 13.14502417 48714
1 48211U 21031B   22110.60303209 -.00000091  00000-0 -28055-3 0  9997
2 48211  87.9014 231.4814 0002334  64.9541 295.1831 13.14503598 48786
1 48211U 21031B   22111.59256359 -.00000221  00000-0 -63055-3 0  9993
2 48211  87.9016 231.2848 0002288  64.2346 295.9019 13.14502364 48918
1 48211U 21031B   22112.58209363 -.00000188  00000-0 -54272-3 0  9999
2 48211  87.9017 231.0879 0002227  62.7163 297.4193 13.14503341 49045
1 48211U 21031B   22113.34327193 -.00000098  00000-0 -30012-3 0  9992
2 48211  87.9017 230.9362 0002163  62.0737 298.0612 13.14502761 49148
1 48211U 21031B   22113.57162543 -.00000081  00000-0 -25316-3 0  9996
2 48211  87.9018 230.8909 0002159  62.2204 297.9144 13.14502725 49172
1 48211U 21031B   22114.56115660  .00000072  00000-0  15878-3 0  9994
2 48211  87.9022 230.6947 0002157  62.2850 297.8498 13.14503252 49304
1 48211U 21031B   22114.78951069 -.00000013  00000-0 -69837-4 0  9991
2 48211  87.9024 230.6496 0002116  60.8602 299.2739 13.14503000 49337
1 48211U 21031B   22115.55068852  .00000148  00000-0  36359-3 0  9995
2 48211  87.9024 230.4984 0002073  60.1253 300.0082 13.14503343 49437
1 48211U 21031B   22115.77904208  .00000145  00000-0  35604-3 0  9992
2 48211  87.9024 230.4531 0002065  60.4963 299.6373 13.14503296 49463
1 48211U 21031B   22116.08351377  .00000145  00000-0  35590-3 0  9994
2 48211  87.9024 230.3926 0002054  60.5842 299.5492 13.14502784 49502
1 48211U 21031B   22116.54021993  .00000244  00000-0  62341-3 0  9997
2 48211  87.9024 230.3020 0002029  60.3036 299.8295 13.14503384 49569
1 48211U 21031B   22116.84469177  .00000174  00000-0  43495-3 0  9991
2 48211  87.9024 230.2415 0002013  59.8201 300.3128 13.14502834 49603
1 48211U 21031B   22117.37751564  .00000190  00000-0  47718-3 0  9994
2 48211  87.9024 230.1357 0001987  59.5373 300.5953 13.14503390 49676
1 48211U 21031B   22117.60586848  .00000251  00000-0  64146-3 0  9993
2 48211  87.9024 230.0903 0001981  59.5135 300.6190 13.14503698 49701
1 48211U 21031B   22118.59539573 -.00001226  00000-0 -33424-2 0  9994
2 48211  87.9024 229.8940 0001995  59.1674 300.9652 13.14511364 49836
1 48211U 21031B   22118.74763733 -.00000380  00000-0 -10603-2 0  9992
2 48211  87.9039 229.8653 0002004  61.7644 298.3688 13.14501458 49855
1 48211U 21031B   22119.58492780  .00000168  00000-0  41896-3 0  9997
2 48211  87.9029 229.6980 0001935  57.6883 302.4433 13.14504316 49969
1 48211U 21031B   22119.73716397  .00000061  00000-0  13019-3 0  9995
2 48211  87.9027 229.6680 0002134  73.4036 286.7327 13.14503465 49984
1 48211U 21031B   22119.81328160 -.00000040  00000-0 -14216-3 0  9990
2 48211  87.9026 229.6527 0002095  63.0827 297.0516 13.14503771 49998
1 48211U 21031B   22120.57445148 -.00004945  00000-0 -13374-1 0  9991
2 48211  87.9028 229.5016 0002180  56.2313 303.9024 13.14527172 50096
1 48211U 21031B   22120.80280634 -.00003238  00000-0 -87688-2 0  9998
2 48211  87.9027 229.4562 0001859  54.4007 305.7295 13.14518951 50121
1 48211U 21031B   22121.03116421  .00000142  00000-0  34929-3 0  9996
2 48211  87.9028 229.4109 0001762  56.8703 303.2596 13.14502164 50150
1 48211U 21031B   22121.56398740 -.00000171  00000-0 -49621-3 0  9999
2 48211  87.9027 229.3044 0001740  56.8826 303.2471 13.14503892 50227
1 48211U 21031B   22121.79234040 -.00000191  00000-0 -54972-3 0  9993
2 48211  87.9027 229.2591 0001723  56.7632 303.3662 13.14503881 50252
1 48211U 21031B   22122.32516396 -.00000194  00000-0 -55867-3 0  9997
2 48211  87.9029 229.1532 0001693  56.4021 303.7270 13.14504196 50320
1 48211U 21031B   22122.55351735 -.00000229  00000-0 -65266-3 0  9999
2 48211  87.9029 229.1079 0001681  56.2668 303.8622 13.14503900 50355
